STARLINK-30550          
1 58045U 23156T   26068.08855197 -.00000029  00000+0  11124-4 0  9998
2 58045  53.1626   4.1379 0000923 116.9815 243.1280 15.30196537137287
2025-313BE              
1 67482U 25313BE  26068.69721505  .00077178  00000+0  26504-2 0  9996
2 67482  97.3989 145.3568 0007208 335.3714  24.7181 15.29801687  7972
